<?xml version='1.0' encoding='utf-8'?>
<osm generator="OSM Conflator 1.3.1" version="0.6"><changeset><tag k="type" v="import" /><tag k="source" v="Mise" /><tag k="created_by" v="OSM Conflator 1.3.1" /></changeset><node action="modify" id="227529033" lat="45.95294" lon="13.436301" version="5"><tag k="description" v="Statale 56 Di Gorizia  Km. 21  Dir. Ovest 34071" /><tag k="operator" v="Tamoil" /><tag k="fuel:lpg" v="yes" /><tag k="brand" v="Tamoil" /><tag k="amenity" v="fuel" /><tag k="addr:city" v="Cormons" /><tag k="addr:postcode" v="34071" /><tag k="source:date" v="2018-04-09" /><tag k="name" v="Tamoil" /></node><node action="modify" id="227707967" lat="45.956714" lon="13.466427" version="4"><tag k="addr:postcode" v="34071" /><tag k="operator" v="Servizi &amp; Gestioni Italia S.R.L." /><tag k="description" v="V.Le V.Giulia Ss 356 Km 45+511 S/N 34071" /><tag k="brand" v="Q8" /><tag k="amenity" v="fuel" /><tag k="source:date" v="2018-04-09" /><tag k="addr:city" v="Cormons" /><tag k="name" v="Shell" /></node><node action="modify" id="227529029" lat="45.950165" lon="13.475204" version="2"><tag k="brand" v="Api-Ip" /><tag k="operator" v="Zorgniotti &amp; Piu Di Zorgniotti Oscar &amp; C. S.A.S." /><tag k="description" v="Statale 56 Di Gorizia  Km. 24  Dir. Gorizia 34071" /><tag k="addr:city" v="Cormons" /><tag k="amenity" v="fuel" /><tag k="source:date" v="2018-04-09" /><tag k="addr:postcode" v="34071" /><tag k="name" v="Ip" /></node></osm>