<?xml version='1.0' encoding='utf-8'?>
<osm generator="OSM Conflator 1.3.1" version="0.6"><changeset><tag k="created_by" v="OSM Conflator 1.3.1" /><tag k="type" v="import" /><tag k="source" v="Mise" /></changeset><node action="modify" id="3728234291" lat="46.4162521" lon="12.9191631" version="1"><tag k="source:date" v="2018-04-09" /><tag k="brand" v="Esso" /><tag k="operator" v="Centro Auto Di Polonia Valerio" /><tag k="description" v="Statale 52 Carnica  Km. 19  Dir. Ampezzo" /><tag k="name" v="Agip" /><tag k="amenity" v="fuel" /><tag k="addr:city" v="Villa Santina" /><tag k="addr:postcode" v="Ezzo" /></node><way action="modify" id="188918886" version="2"><tag k="source:date" v="2018-04-09" /><tag k="brand" v="Agip Eni" /><tag k="description" v="Via Pontebbana 26 33010" /><tag k="building" v="roof" /><tag k="amenity" v="fuel" /><tag k="name" v="Eni" /><tag k="addr:city" v="Venzone" /><tag k="operator" v="Di Bernardo Delia &amp; Alba S.N.C." /><tag k="addr:postcode" v="33010" /><tag k="layer" v="2" /><nd ref="1995519505" /><nd ref="1995519509" /><nd ref="1995519517" /><nd ref="1995519513" /><nd ref="1995519505" /></way><node action="modify" id="228275446" lat="46.415538" lon="12.928011" version="4"><tag k="source:date" v="2018-04-09" /><tag k="brand" v="Agip Eni" /><tag k="description" v="Statale 52 Carnica  Km. 19+041  Dir. Udine 33029" /><tag k="name" v="Agip" /><tag k="amenity" v="fuel" /><tag k="addr:city" v="Villa Santina" /><tag k="operator" v="Gesticarb Snc Di Lucchini Gian Pietro E Luca Sonia" /><tag k="addr:postcode" v="33029" /></node><node action="modify" id="1995519428" lat="46.3629018" lon="13.1354547" version="1"><tag k="source:date" v="2018-04-09" /><tag k="brand" v="Oil Italia" /><tag k="description" v="Via Pontebbana 61 33010" /><tag k="name" v="Oil Italia" /><tag k="amenity" v="fuel" /><tag k="addr:city" v="Venzone" /><tag k="operator" v="Oil Italia Srl" /><tag k="addr:postcode" v="33010" /></node><node action="modify" id="228090953" lat="46.039764" lon="13.253045" version="4"><tag k="source:date" v="2018-04-09" /><tag k="brand" v="Api-Ip" /><tag k="description" v="Viale Palmanova 293 33100" /><tag k="name" v="Total" /><tag k="amenity" v="fuel" /><tag k="addr:city" v="Udine" /><tag k="operator" v="Jetrent S.R.L." /><tag k="addr:postcode" v="33100" /></node><way action="modify" id="377953344" version="1"><tag k="source:date" v="2018-04-09" /><tag k="brand" v="Q8" /><tag k="description" v="Via General Cantore 40 33100" /><tag k="building" v="yes" /><tag k="addr:postcode" v="33100" /><tag k="amenity" v="fuel" /><tag k="addr:city" v="Udine" /><tag k="operator" v="Servizi &amp; Gestioni Italia S.R.L." /><nd ref="3813594871" /><nd ref="3813594872" /><nd ref="3813594873" /><nd ref="3813594874" /><nd ref="3813594871" /></way><node action="modify" id="227715541" lat="46.4148157" lon="12.9313779" version="5"><tag k="source:date" v="2018-04-09" /><tag k="brand" v="Q8" /><tag k="description" v="Ss. 52 Km.18+760 S/N 33029" /><tag k="name" v="Shell" /><tag k="amenity" v="fuel" /><tag k="addr:city" v="Villa Santina" /><tag k="operator" v="Servizi &amp; Gestioni Italia S.R.L." /><tag k="addr:postcode" v="33029" /></node><node action="modify" id="227513490" lat="46.073994" lon="13.202514" version="5"><tag k="source:date" v="2018-04-09" /><tag k="brand" v="Api-Ip" /><tag k="description" v="Via Martignacco 248 33100" /><tag k="name" v="Api" /><tag k="amenity" v="fuel" /><tag k="addr:city" v="Udine" /><tag k="operator" v="Ip Services S.R.L." /><tag k="addr:postcode" v="33100" /></node><node action="modify" id="228092279" lat="46.078913" lon="13.234862" version="4"><tag k="source:date" v="2018-04-09" /><tag k="brand" v="Api-Ip" /><tag k="description" v="Piazzale Chiavris  33100" /><tag k="name" v="IP" /><tag k="amenity" v="fuel" /><tag k="addr:city" v="Udine" /><tag k="operator" v="Ip Services S.R.L." /><tag k="addr:postcode" v="33100" /></node><way action="modify" id="377840207" version="1"><tag k="source:date" v="2018-04-09" /><tag k="brand" v="Oil Italia" /><tag k="description" v="Viale Venezia 504 33100" /><tag k="building" v="yes" /><tag k="addr:postcode" v="33100" /><tag k="amenity" v="fuel" /><tag k="addr:city" v="Udine" /><tag k="operator" v="Oil Italia Srl" /><nd ref="3812426893" /><nd ref="3812426894" /><nd ref="3812426895" /><nd ref="3812426896" /><nd ref="3812426893" /></way><node action="modify" id="227031828" lat="46.056728" lon="13.229027" version="4"><tag k="source:date" v="2018-04-09" /><tag k="brand" v="Agip Eni" /><tag k="description" v="Viale Duodo 20 33100" /><tag k="name" v="Agip" /><tag k="amenity" v="fuel" /><tag k="addr:city" v="Udine" /><tag k="operator" v="Poci Hekuran" /><tag k="addr:postcode" v="33100" /></node><node action="modify" id="227715109" lat="46.053483" lon="13.246706" version="6"><tag k="source:date" v="2018-04-09" /><tag k="brand" v="Q8" /><tag k="description" v="Viale Palmanova 77 33100" /><tag k="name" v="Q8" /><tag k="amenity" v="fuel" /><tag k="addr:city" v="Udine" /><tag k="operator" v="Servizi &amp; Gestioni Italia S.R.L." /><tag k="addr:postcode" v="33100" /><tag k="wheelchair" v="yes" /></node><node action="modify" id="227715536" lat="46.075415" lon="13.226434" version="4"><tag k="source:date" v="2018-04-09" /><tag k="brand" v="Q8" /><tag k="description" v="Via Pieri 18 33100" /><tag k="name" v="Shell" /><tag k="amenity" v="fuel" /><tag k="addr:city" v="Udine" /><tag k="operator" v="Servizi &amp; Gestioni Italia S.R.L." /><tag k="addr:postcode" v="33100" /></node><node action="modify" id="228092114" lat="46.085904" lon="13.217102" version="4"><tag k="source:date" v="2018-04-09" /><tag k="brand" v="Api-Ip" /><tag k="description" v="Via Colugna 175 33100" /><tag k="name" v="IP" /><tag k="amenity" v="fuel" /><tag k="addr:city" v="Udine" /><tag k="operator" v="Pallini Maurizio" /><tag k="addr:postcode" v="33100" /></node><node action="modify" id="228090776" lat="46.0875212" lon="13.2331517" version="5"><tag k="source:date" v="2018-04-09" /><tag k="brand" v="Agip Eni" /><tag k="description" v="Viale Tricesimo 93 33100" /><tag k="name" v="Agip" /><tag k="amenity" v="fuel" /><tag k="addr:city" v="Udine" /><tag k="operator" v="Troina Massimo" /><tag k="addr:postcode" v="33100" /></node><node action="modify" id="227715535" lat="46.037664" lon="13.247023" version="4"><tag k="source:date" v="2018-04-09" /><tag k="brand" v="Q8" /><tag k="description" v="Via Adenauer Area Z.A.U. S/N 33100" /><tag k="name" v="Shell" /><tag k="amenity" v="fuel" /><tag k="addr:city" v="Udine" /><tag k="operator" v="Servizi &amp; Gestioni Italia S.R.L." /><tag k="addr:postcode" v="33100" /></node><way action="modify" id="231899864" version="1"><tag k="source:date" v="2018-04-09" /><tag k="brand" v="Esso" /><tag k="operator" v="A. &amp; B. Sas Di Alvaro Alessandro &amp; C." /><tag k="description" v="Statale 14 Della Venezia Giulia  Km. 115+050  Dir. Trieste 33059" /><tag k="building" v="yes" /><tag k="name" v="Esso" /><tag k="amenity" v="fuel" /><tag k="addr:city" v="Villa Vicentina" /><tag k="addr:postcode" v="33059" /><nd ref="2402250460" /><nd ref="2402250462" /><nd ref="2402250461" /><nd ref="2402250459" /><nd ref="2402250460" /></way></osm>